COSMOS 2058             
1 20465U 90010A   26160.52478602  .00003111  00000+0  17958-3 0  9994
2 20465  82.4660 316.9124 0010177  26.9367 333.2389 15.11960637956112
SL-14 R/B               
1 20466U 90010B   26160.47935362  .00000343  00000+0  38624-4 0  9998
2 20466  82.5016 181.1837 0019777   2.0835 358.0459 14.83641344942096
SL-14 R/B               
1 20511U 90018B   26160.45045636  .00000368  00000+0  43099-4 0  9990
2 20511  82.5205 137.3390 0016961 145.5918 214.6398 14.82211122936178
HST                     
1 20580U 90037B   26160.25429042  .00004810  00000+0  15014-3 0  9993
2 20580  28.4711 134.7882 0001992  63.4353 296.6447 15.30659901787355
SL-16 R/B               
1 20625U 90046B   26160.24282010  .00000307  00000+0  18279-3 0  9997
2 20625  70.9985 105.6321 0014001 173.6796 186.4506 14.15022087861340
COSMOS 2084             
1 20663U 90055A   26160.35970439  .00001807  00000+0  13680-3 0  9997
2 20663  62.7911  22.8069 0005491 264.4956  95.5519 15.06083976950123
SL-6 R/B(2)             
1 20666U 90055D   26160.53620225  .00001587  00000+0  12726-3 0  9990
2 20666  62.7827 301.4110 0039377   4.1163 356.0252 15.03977649952008
SL-8 R/B                
1 20775U 90078B   26160.48351116  .00016473  00000+0  46349-3 0  9998
2 20775  82.9013 168.6031 0352638  64.3906 299.3308 14.92020167822970
SL-8 R/B                
1 21088U 91006B   26160.37621693  .00000044  00000+0  28829-4 0  9997
2 21088  82.9421 101.8442 0023347 135.3962 346.8420 13.77505353776696
OKEAN-3                 
1 21397U 91039A   26160.49418621  .00001756  00000+0  12062-3 0  9996
2 21397  82.5161 247.8410 0014563  25.2650 334.9286 15.05291461878846
COSMOS 2151             
1 21422U 91042A   26160.52381576  .00001280  00000+0  99510-4 0  9997
2 21422  82.4961 355.0773 0013766 106.9366 253.3369 15.00416186876966
SL-14 R/B               
1 21423U 91042B   26160.38784353  .00000360  00000+0  42486-4 0  9990
2 21423  82.4922 134.2096 0015651 302.9590  57.0119 14.81897503866652
ERS-1                   
1 21574U 91050A   26160.51897809  .00000249  00000+0  94320-4 0  9992
2 21574  98.7798 181.0295 0030763 290.6388  69.1501 14.39512349828944
ARIANE 40 R/B           
1 21610U 91050F   26160.42131998  .00000245  00000+0  85640-4 0  9994
2 21610  98.1878 209.1404 0003923 138.1097 222.0395 14.42952461832227
INTERCOSMOS 25          
1 21819U 91086A   26160.51861387  .00000482  00000+0  96089-4 0  9998
2 21819  82.6053 254.4498 1484294 278.9524  64.6952 12.12186950507810
SL-8 R/B                
1 21876U 92008B   26160.50093179  .00000094  00000+0  81731-4 0  9998
2 21876  82.9265 199.5023 0033436 236.8225 235.5017 13.75974804722040
SL-8 R/B                
1 21938U 92020B   26160.58578935  .00000046  00000+0  31893-4 0  9998
2 21938  82.9305  85.5032 0030159  43.1924 136.0800 13.75548116713769
USA 81                  
1 21949U 92023A   26160.52080096  .00000153  00000+0  49380-4 0  9992
2 21949  85.0077  78.4319 0002762  91.5526 268.5983 14.32396151107937
COSMOS 2219             
1 22219U 92076A   26160.48021220  .00000030  00000+0  40313-4 0  9991
2 22219  71.0574 186.1837 0016237  56.7453 303.5223 14.14095701731354
SL-16 R/B               
1 22220U 92076B   26160.54746780 -.00000202  00000+0 -76712-4 0  9990
2 22220  71.0006 354.8757 0014503 308.6097 118.0218 14.16871654734849
COSMOS 2221             
1 22236U 92080A   26160.51659367  .00001290  00000+0  11111-3 0  9990
2 22236  82.5033 191.1137 0012736 240.4280 119.5673 14.96513983794528
SL-16 R/B               
1 22285U 92093B   26160.46880514 -.00000163  00000+0 -58883-4 0  9990
2 22285  71.0200 171.5947 0004379 199.8381 160.2572 14.15464528726140
COSMOS 2228             
1 22286U 92094A   26160.47062309  .00001903  00000+0  16034-3 0  9999
2 22286  82.5169 149.4342 0017696 358.9457   1.1725 14.97558560789796
SL-16 R/B               
1 22566U 93016B   26160.30671018  .00000150  00000+0  10150-3 0  9996
2 22566  71.0080  22.7597 0010712 194.9068 165.1741 14.15309272715135
COSMOS 2242             
1 22626U 93024A   26160.49340545  .00001490  00000+0  12734-3 0  9998
2 22626  82.5179 178.9037 0016126   2.7229 357.4078 14.96880529794124
SL-16 R/B               
1 22803U 93059B   26160.44375355  .00000268  00000+0  15608-3 0  9990
2 22803  70.9883 177.6336 0015022  67.5249 292.7464 14.17245072692530
ARIANE 40 R/B           
1 22830U 93061H   26160.10532169  .00000161  00000+0  74664-4 0  9994
2 22830  98.4819 227.1301 0010978  20.2194 339.9423 14.32904458707192
COSMOS 2278             
1 23087U 94023A   26160.53813484  .00000353  00000+0  20880-3 0  9990
2 23087  71.0543 342.9297 0010590 251.9247 108.0722 14.14393915657797
SL-16 R/B               
1 23088U 94023B   26160.54330066  .00000234  00000+0  14559-3 0  9996
2 23088  70.9995 237.9840 0003262 194.4124 165.6906 14.15020148659080
SL-16 R/B               
1 23343U 94074B   26160.51761822  .00000376  00000+0  56932-4 0  9990
2 23343  97.6994 187.5579 0005124 285.9819 202.7354 14.79495792700824
